STARLINK-38005          
1 69677U 26145A   26183.25003472 -.01983716  00000+0 -12038-1 0  9997
2 69677  97.2844  29.4424 0001983  86.7459  87.8525 15.80606676  2356
STARLINK-38009          
1 69678U 26145B   26183.25003472 -.01344825  00000+0 -78518-2 0  9996
2 69678  97.2845  29.4451 0001736 112.4872  66.8185 15.81238051  2358
STARLINK-37998          
1 69679U 26145C   26183.25003472 -.00045587  00000+0 -23826-3 0  9992
2 69679  97.2845  29.4470 0001433  96.0103  87.3843 15.80836875  2354
STARLINK-37994          
1 69680U 26145D   26183.25003472 -.00994248  00000+0 -57043-2 0  9998
2 69680  97.2843  29.4471 0001293  91.8765  92.0289 15.81228994  2351
STARLINK-37992          
1 69681U 26145E   26183.25003472 -.00822662  00000+0 -46515-2 0  9991
2 69681  97.2845  29.4477 0001829 122.7311  63.0572 15.81104129  2352
STARLINK-37997          
1 69682U 26145F   26183.25003472 -.00210739  00000+0 -11216-2 0  9998
2 69682  97.2845  29.4487 0002032 127.6802  59.7687 15.80901372  2353
STARLINK-37990          
1 69683U 26145G   26183.25003472 -.01967800  00000+0 -12032-1 0  9994
2 69683  97.2846  29.4516 0002192  97.6329  97.7837 15.80413686  2350
STARLINK-37951          
1 69684U 26145H   26183.25003472 -.01603037  00000+0 -93699-2 0  9993
2 69684  97.2844  29.4521 0001966 104.1874  91.9737 15.81251553  2351
STARLINK-37957          
1 69685U 26145J   26183.25003472 -.00642957  00000+0 -35702-2 0  9998
2 69685  97.2845  29.4535 0001025 111.4592  87.5961 15.81056742  2355
STARLINK-37968          
1 69686U 26145K   26183.25003472 -.00082218  00000+0 -43155-3 0  9999
2 69686  97.2850  29.4652 0001427  74.8028 150.8760 15.80865800  2357
STARLINK-37977          
1 69687U 26145L   26183.25003472 -.00033615  00000+0 -17533-3 0  9998
2 69687  97.2852  29.4675 0001602  96.5854 135.4625 15.80826820  2356
STARLINK-37908          
1 69688U 26145M   26183.25003472  .00159649  00000+0  82119-3 0  9995
2 69688  97.2855  29.4721 0001483 113.1126 125.5581 15.80758886  2354
STARLINK-37979          
1 69689U 26145N   26183.25003472 -.00048544  00000+0 -25390-3 0  9997
2 69689  97.2854  29.4725 0001442  81.4792 160.9539 15.80832553  2359
STARLINK-37940          
1 69690U 26145P   26183.25003472 -.00067505  00000+0 -35411-3 0  9992
2 69690  97.2854  29.4763 0001095  71.4637 179.7033 15.80834974  2350
STARLINK-37961          
1 69691U 26145Q   26183.25003472 -.00466352  00000+0 -25331-2 0  9995
2 69691  97.2856  29.4802 0001724  75.3745 184.3023 15.81095375  2355
STARLINK-37787          
1 69692U 26145R   26183.25003472 -.01115860  00000+0 -62491-2 0  9990
2 69692  97.2858  29.4842 0001703  87.2989 181.2328 15.81628220  2356
STARLINK-37962          
1 69693U 26145S   26183.25003472 -.01122199  00000+0 -62870-2 0  9995
2 69693  97.2859  29.4841 0001683  84.8046 183.0411 15.81634040  2351
STARLINK-37953          
1 69694U 26145T   26183.25003472 -.01089058  00000+0 -62151-2 0  9994
2 69694  97.2859  29.4844 0002002  91.2168 178.0319 15.81581636  2351
STARLINK-37926          
1 69695U 26145U   26183.25003472 -.01373169  00000+0 -78265-2 0  9997
2 69695  97.2860  29.4864 0001527  86.0671 186.2794 15.81822193  2352
STARLINK-37959          
1 69696U 26145V   26183.25003472 -.01452275  00000+0 -81438-2 0  9990
2 69696  97.2861  29.4862 0001528  91.0444 182.2847 15.81859776  2359
STARLINK-37976          
1 69697U 26145W   26183.25003472 -.02503283  00000+0 -13714-1 0  9999
2 69697  97.2867  29.4922 0001895  96.0165 189.4562 15.83039302  2355
STARLINK-37912          
1 69698U 26145X   26183.25003472 -.02396177  00000+0 -12833-1 0  9993
2 69698  97.2865  29.4948 0001887 114.5576 177.4630 15.83362908  2359
STARLINK-37974          
1 69699U 26145Y   26183.25003472 -.02378473  00000+0 -12636-1 0  9994
2 69699  97.2869  29.4964 0001661  96.9578 198.0632 15.83510179  2353
STARLINK-37955          
1 69700U 26145Z   26183.25003472 -.02451473  00000+0 -12522-1 0  9993
2 69700  97.2872  29.5009 0001505 110.2166 198.4698 15.84435680  2351
STRIX-8                 
1 69701U 26146A   26183.20612542  .00005929  00000+0  43099-3 0  9996
2 69701  41.9894  85.0428 0009113 301.8750  58.1190 15.04334124   826
STARLINK-38055          
1 69704U 26147A   26183.25003472 -.02484890  17523-2 -58362-2 0  9992
2 69704  97.2834 218.8410 0001236  78.8888 147.6297 15.97083902  1667
STARLINK-37898          
1 69705U 26147B   26183.25003472 -.02457265  17176-2 -57175-2 0  9994
2 69705  97.2832 218.8412 0001221  75.9514 151.5726 15.97254557  1663
STARLINK-37970          
1 69706U 26147C   26183.25003472 -.02439148  16964-2 -56210-2 0  9998
2 69706  97.2834 218.8419 0001354  85.0108 143.5418 15.97429620  1665
