OBJECT_NAME,OBJECT_ID,EPOCH,MEAN_MOTION,ECCENTRICITY,INCLINATION,RA_OF_ASC_NODE,ARG_OF_PERICENTER,MEAN_ANOMALY,EPHEMERIS_TYPE,CLASSIFICATION_TYPE,NORAD_CAT_ID,ELEMENT_SET_NO,REV_AT_EPOCH,BSTAR,MEAN_MOTION_DOT,MEAN_MOTION_DDOT
STARLINK-38005,2026-145A,2026-07-02T06:00:02.999808,15.80606676,.00019835,97.2844,29.4424,86.7459,87.8525,0,U,69677,999,235,-.12038389E-1,-.1983716E-1,0
STARLINK-38009,2026-145B,2026-07-02T06:00:02.999808,15.81238051,.00017365,97.2845,29.4451,112.4872,66.8185,0,U,69678,999,235,-.78518109E-2,-.1344825E-1,0
STARLINK-37998,2026-145C,2026-07-02T06:00:02.999808,15.80836875,.0001433,97.2845,29.4470,96.0103,87.3843,0,U,69679,999,235,-.23826338E-3,-.45587E-3,0
STARLINK-37994,2026-145D,2026-07-02T06:00:02.999808,15.81228994,.0001293,97.2843,29.4471,91.8765,92.0289,0,U,69680,999,235,-.57042708E-2,-.994248E-2,0
STARLINK-37992,2026-145E,2026-07-02T06:00:02.999808,15.81104129,.00018296,97.2845,29.4477,122.7311,63.0572,0,U,69681,999,235,-.46514768E-2,-.822662E-2,0
STARLINK-37997,2026-145F,2026-07-02T06:00:02.999808,15.80901372,.0002032,97.2845,29.4487,127.6802,59.7687,0,U,69682,999,235,-.11216211E-2,-.210739E-2,0
STARLINK-37990,2026-145G,2026-07-02T06:00:02.999808,15.80413686,.00021922,97.2846,29.4516,97.6329,97.7837,0,U,69683,999,235,-.12031893E-1,-.19678E-1,0
STARLINK-37951,2026-145H,2026-07-02T06:00:02.999808,15.81251553,.00019663,97.2844,29.4521,104.1874,91.9737,0,U,69684,999,235,-.93698977E-2,-.1603037E-1,0
STARLINK-37957,2026-145J,2026-07-02T06:00:02.999808,15.81056742,.0001025,97.2845,29.4535,111.4592,87.5961,0,U,69685,999,235,-.35702363E-2,-.642957E-2,0
STARLINK-37968,2026-145K,2026-07-02T06:00:02.999808,15.80865800,.00014277,97.2850,29.4652,74.8028,150.8760,0,U,69686,999,235,-.43154838E-3,-.82218E-3,0
STARLINK-37977,2026-145L,2026-07-02T06:00:02.999808,15.80826820,.00016026,97.2852,29.4675,96.5854,135.4625,0,U,69687,999,235,-.17533099E-3,-.33615E-3,0
STARLINK-37908,2026-145M,2026-07-02T06:00:02.999808,15.80758886,.0001483,97.2855,29.4721,113.1126,125.5581,0,U,69688,999,235,.82118602E-3,.159649E-2,0
STARLINK-37979,2026-145N,2026-07-02T06:00:02.999808,15.80832553,.00014426,97.2854,29.4725,81.4792,160.9539,0,U,69689,999,235,-.25389944E-3,-.48544E-3,0
STARLINK-37940,2026-145P,2026-07-02T06:00:02.999808,15.80834974,.00010959,97.2854,29.4763,71.4637,179.7033,0,U,69690,999,235,-.35410861E-3,-.67505E-3,0
STARLINK-37961,2026-145Q,2026-07-02T06:00:02.999808,15.81095375,.0001724,97.2856,29.4802,75.3745,184.3023,0,U,69691,999,235,-.25331459E-2,-.466352E-2,0
STARLINK-37787,2026-145R,2026-07-02T06:00:02.999808,15.81628220,.00017036,97.2858,29.4842,87.2989,181.2328,0,U,69692,999,235,-.62490997E-2,-.111586E-1,0
STARLINK-37962,2026-145S,2026-07-02T06:00:02.999808,15.81634040,.00016832,97.2859,29.4841,84.8046,183.0411,0,U,69693,999,235,-.62869556E-2,-.1122199E-1,0
STARLINK-37953,2026-145T,2026-07-02T06:00:02.999808,15.81581636,.00020022,97.2859,29.4844,91.2168,178.0319,0,U,69694,999,235,-.62150605E-2,-.1089058E-1,0
STARLINK-37926,2026-145U,2026-07-02T06:00:02.999808,15.81822193,.00015274,97.2860,29.4864,86.0671,186.2794,0,U,69695,999,235,-.78265167E-2,-.1373169E-1,0
STARLINK-37959,2026-145V,2026-07-02T06:00:02.999808,15.81859776,.00015284,97.2861,29.4862,91.0444,182.2847,0,U,69696,999,235,-.81437805E-2,-.1452275E-1,0
STARLINK-37976,2026-145W,2026-07-02T06:00:02.999808,15.83039302,.00018955,97.2867,29.4922,96.0165,189.4562,0,U,69697,999,235,-.13714249E-1,-.2503283E-1,0
STARLINK-37912,2026-145X,2026-07-02T06:00:02.999808,15.83362908,.00018876,97.2865,29.4948,114.5576,177.4630,0,U,69698,999,235,-.12833078E-1,-.2396177E-1,0
STARLINK-37974,2026-145Y,2026-07-02T06:00:02.999808,15.83510179,.00016617,97.2869,29.4964,96.9578,198.0632,0,U,69699,999,235,-.12636206E-1,-.2378473E-1,0
STARLINK-37955,2026-145Z,2026-07-02T06:00:02.999808,15.84435680,.00015059,97.2872,29.5009,110.2166,198.4698,0,U,69700,999,235,-.12522439E-1,-.2451473E-1,0
STRIX-8,2026-146A,2026-07-02T04:56:49.236288,15.04334124,.0009113,41.9894,85.0428,301.8750,58.1190,0,U,69701,999,82,.43098613E-3,.5929E-4,0
STARLINK-38055,2026-147A,2026-07-02T06:00:02.999808,15.97083902,.00012367,97.2834,218.8410,78.8888,147.6297,0,U,69704,999,166,-.58362119E-2,-.248489E-1,.17523165E-2
STARLINK-37898,2026-147B,2026-07-02T06:00:02.999808,15.97254557,.0001221,97.2832,218.8412,75.9514,151.5726,0,U,69705,999,166,-.57175491E-2,-.2457265E-1,.17176215E-2
STARLINK-37970,2026-147C,2026-07-02T06:00:02.999808,15.97429620,.00013541,97.2834,218.8419,85.0108,143.5418,0,U,69706,999,166,-.56209915E-2,-.2439148E-1,.1696368E-2
